[{"OBJECT_NAME":"PROTOMETHEE","OBJECT_ID":"2023-174BT","EPOCH":"2026-03-09T23:28:08.029344","MEAN_MOTION":15.30202663,"ECCENTRICITY":0.00088339,"INCLINATION":97.3826,"RA_OF_ASC_NODE":147.9552,"ARG_OF_PERICENTER":148.5993,"MEAN_ANOMALY":211.5776,"EPHEMERIS_TYPE":0,"CLASSIFICATION_TYPE":"U","NORAD_CAT_ID":58321,"ELEMENT_SET_NO":999,"REV_AT_EPOCH":12979,"BSTAR":0.00015715731,"MEAN_MOTION_DOT":4.52e-5,"MEAN_MOTION_DDOT":0},{"OBJECT_NAME":"STARLINK-32136","OBJECT_ID":"2024-183G","EPOCH":"2026-03-09T12:32:20.325408","MEAN_MOTION":15.30186561,"ECCENTRICITY":0.000111,"INCLINATION":53.1619,"RA_OF_ASC_NODE":143.4555,"ARG_OF_PERICENTER":94.1261,"MEAN_ANOMALY":265.9867,"EPHEMERIS_TYPE":0,"CLASSIFICATION_TYPE":"U","NORAD_CAT_ID":61515,"ELEMENT_SET_NO":999,"REV_AT_EPOCH":7962,"BSTAR":-7.414411e-6,"MEAN_MOTION_DOT":-5.78e-6,"MEAN_MOTION_DDOT":0}]
